         0.0000000       15.4910180     6797.4913956        0.0000551       51.6462000      279.2215000       48.1342000       51.6462000
      1440.0000000       15.4910632     6797.4781691        0.0000550       51.6462000       96.6152863       43.1839840       51.6462000
      2880.0000000       15.4911084     6797.4649406        0.0000551       51.6462000      274.0253507       38.2337342       51.6462000
      4320.0000000       15.4911536     6797.4517101        0.0000550       51.6462000       91.4516958       33.2834508       51.6462000
      5760.0000000       15.4911989     6797.4384775        0.0000550       51.6462000      268.8943242       28.3331337       51.6462000
      7200.0000000       15.4912441     6797.4252429        0.0000550       51.6462000       86.3532386       23.3827829       51.6462000
      8640.0000000       15.4912893     6797.4120062        0.0000550       51.6462000      263.8284414       18.4323984       51.6462000
     10080.0000000       15.4913346     6797.3987675        0.0000549       51.6462000       81.3199352       13.4819802       51.6462000
     11520.0000000       15.4913799     6797.3855268        0.0000549       51.6462000      258.8277227        8.5315284       51.6462000
     12960.0000000       15.4914251     6797.3722840        0.0000549       51.6462000       76.3518065        3.5810428       51.6462000
     14206.9688208       15.4914643     6797.3608148        0.0000549       51.6462000      226.2251340      359.2941398       51.6462000


 1 25544U 98067A   21009.59390613 +.00001808  00000 0  40563-4 0 0999                                                                                                                                                                                                                                                                                                                                                                                                                                                            
 2 25544  51.6462  47.1650 0000551 205.9519 291.1953 15.4927449826401                                                                                                                                                                                                                                                                                                                                                                                                                                                            

         0.0000000       15.4910268     6797.4888073        0.0000551       51.6462000      291.1953000       47.1650000       51.6462000
      1440.0000000       15.4910720     6797.4755805        0.0000550       51.6462000      108.5922725       42.2147774       51.6462000
      2880.0000000       15.4911172     6797.4623516        0.0000551       51.6462000      286.0055237       37.2645210       51.6462000
      4320.0000000       15.4911625     6797.4491206        0.0000550       51.6462000      103.4350561       32.3142310       51.6462000
      5760.0000000       15.4912077     6797.4358877        0.0000550       51.6462000      280.8808723       27.3639073       51.6462000
      7200.0000000       15.4912529     6797.4226526        0.0000550       51.6462000       98.3429749       22.4135499       51.6462000
      8640.0000000       15.4912982     6797.4094156        0.0000550       51.6462000      275.8213665       17.4631588       51.6462000
     10080.0000000       15.4913435     6797.3961765        0.0000549       51.6462000       93.3160497       12.5127340       51.6462000
     11520.0000000       15.4913887     6797.3829353        0.0000549       51.6462000      270.8270270        7.5622755       51.6462000
     12960.0000000       15.4914340     6797.3696921        0.0000549       51.6462000       88.3543011        2.6117833       51.6462000
     13925.0371248       15.4914643     6797.3608159        0.0000549       51.6462000      226.2251478      359.2941195       51.6462000


 1 25544U 98067A   21009.85938488 +.00001675  00000 0  38168-4 0 0999                                                                                                                                                                                                                                                                                                                                                                                                                                                            
 2 25544  51.6464  45.8515 0000514 205.2264 333.5747 15.4927514126405                                                                                                                                                                                                                                                                                                                                                                                                                                                            

         0.0000000       15.4910333     6797.4868938        0.0000514       51.6464000      333.5747000       45.8515000       51.6464000
      1440.0000000       15.4910759     6797.4744477        0.0000514       51.6464000      150.9735070       40.9012955       51.6464000
      2880.0000000       15.4911184     6797.4619998        0.0000514       51.6464000      328.3876316       35.9510593       51.6464000
      4320.0000000       15.4911610     6797.4495501        0.0000513       51.6464000      145.8170761       31.0007914       51.6464000
      5760.0000000       15.4912036     6797.4370986        0.0000513       51.6464000      323.2618430       26.0504918       51.6464000
      7200.0000000       15.4912461     6797.4246452        0.0000513       51.6464000      140.7219343       21.1001604       51.6464000
      8640.0000000       15.4912887     6797.4121901        0.0000513       51.6464000      318.1973525       16.1497974       51.6464000
     10080.0000000       15.4913313     6797.3997332        0.0000512       51.6464000      135.6880999       11.1994027       51.6464000
     11520.0000000       15.4913739     6797.3872744        0.0000512       51.6464000      313.1941786        6.2489763       51.6464000
     12960.0000000       15.4914165     6797.3748139        0.0000512       51.6464000      130.7155911        1.2985181       51.6464000
     13542.7477248       15.4914337     6797.3697708        0.0000512       51.6464000      227.8643340      359.2951284       51.6464000


 1 25544U 98067A   21009.90234038 +.00001675  00000 0  38183-4 0 0999                                                                                                                                                                                                                                                                                                                                                                                                                                                            
 2 25544  51.6464  45.6388 0000512 205.3232 213.2158 15.4927532726406                                                                                                                                                                                                                                                                                                                                                                                                                                                            

         0.0000000       15.4910352     6797.4863498        0.0000512       51.6464000      213.2158000       45.6388000       51.6464000
      1440.0000000       15.4910778     6797.4738988        0.0000512       51.6464000       30.6152796       40.6885941       51.6464000
      2880.0000000       15.4911203     6797.4614459        0.0000512       51.6464000      208.0300830       35.7383565       51.6464000
      4320.0000000       15.4911629     6797.4489912        0.0000511       51.6464000       25.4602125       30.7880872       51.6464000
      5760.0000000       15.4912055     6797.4365347        0.0000511       51.6464000      202.9056703       25.8377861       51.6464000
      7200.0000000       15.4912481     6797.4240764        0.0000511       51.6464000       20.3664589       20.8874534       51.6464000
      8640.0000000       15.4912907     6797.4116163        0.0000511       51.6464000      197.8425803       15.9370889       51.6464000
     10080.0000000       15.4913333     6797.3991544        0.0000510       51.6464000       15.3340371       10.9866927       51.6464000
     11520.0000000       15.4913759     6797.3866907        0.0000510       51.6464000      192.8408314        6.0362648       51.6464000
     12960.0000000       15.4914185     6797.3742251        0.0000510       51.6464000       10.3629655        1.0858051       51.6464000
     13480.8918048       15.4914339     6797.3697155        0.0000510       51.6464000      227.9261682      359.2950655       51.6464000

